KUIPER-00112            
1 65150U 25171U   25236.67198187  .00011111  00000+0  33232-3 0  9998
2 65150  51.8791 341.3280 0005390 201.7249 158.3509 15.35046949  3261
KUIPER-00114            
1 65151U 25171V   25236.67075429  .00007434  00000+0  22576-3 0  9994
2 65151  51.8789 341.3178 0005062 193.1954 166.8901 15.35098093  3265
KUIPER-00115            
1 65152U 25171W   25236.66732402  .00014159  00000+0  41377-3 0  9997
2 65152  51.8780 341.2936 0005763 173.2441 186.8624 15.35537023  3261
KUIPER-00116            
1 65153U 25171X   25236.66963862  .00021002  00000+0  61249-3 0  9999
2 65153  51.8794 341.3139 0005193 189.6974 170.3913 15.35302832  3269
KUIPER-00118            
1 65154U 25171Y   25236.67129366  .00017828  00000+0  52464-3 0  9994
2 65154  51.8791 341.3227 0004780 196.5796 163.5034 15.35133794  3262
KUIPER-00119            
1 65155U 25171Z   25236.73074572  .00018639  00000+0  53747-3 0  9996
2 65155  51.8784 340.9696 0005783 172.1893 187.9185 15.35737116  3278
