<?xml version="1.0" encoding="UTF-8"?>
<ndm xmlns:xsi="http://www.w3.org/2001/XMLSchema-instance" xsi:noNamespaceSchemaLocation="https://sanaregistry.org/r/ndmxml_unqualified/ndmxml-2.0.0-master-2.0.xsd">
<omm id="CCSDS_OMM_VERS" version="2.0">
<header><CREATION_DATE/><ORIGINATOR/></header><body><segment><metadata><OBJECT_NAME>KUIPER-00112</OBJECT_NAME><OBJECT_ID>2025-171U</OBJECT_ID><CENTER_NAME>EARTH</CENTER_NAME><REF_FRAME>TEME</REF_FRAME><TIME_SYSTEM>UTC</TIME_SYSTEM><MEAN_ELEMENT_THEORY>SGP4</MEAN_ELEMENT_THEORY></metadata><data><meanElements><EPOCH>2025-08-24T16:07:39.233568</EPOCH><MEAN_MOTION>15.35046949</MEAN_MOTION><ECCENTRICITY>.00053908</ECCENTRICITY><INCLINATION>51.8791</INCLINATION><RA_OF_ASC_NODE>341.3280</RA_OF_ASC_NODE><ARG_OF_PERICENTER>201.7249</ARG_OF_PERICENTER><MEAN_ANOMALY>158.3509</MEAN_ANOMALY></meanElements><tleParameters><EPHEMERIS_TYPE>0</EPHEMERIS_TYPE><CLASSIFICATION_TYPE>U</CLASSIFICATION_TYPE><NORAD_CAT_ID>65150</NORAD_CAT_ID><ELEMENT_SET_NO>999</ELEMENT_SET_NO><REV_AT_EPOCH>326</REV_AT_EPOCH><BSTAR>.33231569E-3</BSTAR><MEAN_MOTION_DOT>.11111E-3</MEAN_MOTION_DOT><MEAN_MOTION_DDOT>0</MEAN_MOTION_DDOT></tleParameters></data></segment></body></omm>
<omm id="CCSDS_OMM_VERS" version="2.0">
<header><CREATION_DATE/><ORIGINATOR/></header><body><segment><metadata><OBJECT_NAME>KUIPER-00114</OBJECT_NAME><OBJECT_ID>2025-171V</OBJECT_ID><CENTER_NAME>EARTH</CENTER_NAME><REF_FRAME>TEME</REF_FRAME><TIME_SYSTEM>UTC</TIME_SYSTEM><MEAN_ELEMENT_THEORY>SGP4</MEAN_ELEMENT_THEORY></metadata><data><meanElements><EPOCH>2025-08-24T16:05:53.170656</EPOCH><MEAN_MOTION>15.35098093</MEAN_MOTION><ECCENTRICITY>.00050621</ECCENTRICITY><INCLINATION>51.8789</INCLINATION><RA_OF_ASC_NODE>341.3178</RA_OF_ASC_NODE><ARG_OF_PERICENTER>193.1954</ARG_OF_PERICENTER><MEAN_ANOMALY>166.8901</MEAN_ANOMALY></meanElements><tleParameters><EPHEMERIS_TYPE>0</EPHEMERIS_TYPE><CLASSIFICATION_TYPE>U</CLASSIFICATION_TYPE><NORAD_CAT_ID>65151</NORAD_CAT_ID><ELEMENT_SET_NO>999</ELEMENT_SET_NO><REV_AT_EPOCH>326</REV_AT_EPOCH><BSTAR>.22576345E-3</BSTAR><MEAN_MOTION_DOT>.7434E-4</MEAN_MOTION_DOT><MEAN_MOTION_DDOT>0</MEAN_MOTION_DDOT></tleParameters></data></segment></body></omm>
<omm id="CCSDS_OMM_VERS" version="2.0">
<header><CREATION_DATE/><ORIGINATOR/></header><body><segment><metadata><OBJECT_NAME>KUIPER-00115</OBJECT_NAME><OBJECT_ID>2025-171W</OBJECT_ID><CENTER_NAME>EARTH</CENTER_NAME><REF_FRAME>TEME</REF_FRAME><TIME_SYSTEM>UTC</TIME_SYSTEM><MEAN_ELEMENT_THEORY>SGP4</MEAN_ELEMENT_THEORY></metadata><data><meanElements><EPOCH>2025-08-24T16:00:56.795328</EPOCH><MEAN_MOTION>15.35537023</MEAN_MOTION><ECCENTRICITY>.00057634</ECCENTRICITY><INCLINATION>51.8780</INCLINATION><RA_OF_ASC_NODE>341.2936</RA_OF_ASC_NODE><ARG_OF_PERICENTER>173.2441</ARG_OF_PERICENTER><MEAN_ANOMALY>186.8624</MEAN_ANOMALY></meanElements><tleParameters><EPHEMERIS_TYPE>0</EPHEMERIS_TYPE><CLASSIFICATION_TYPE>U</CLASSIFICATION_TYPE><NORAD_CAT_ID>65152</NORAD_CAT_ID><ELEMENT_SET_NO>999</ELEMENT_SET_NO><REV_AT_EPOCH>326</REV_AT_EPOCH><BSTAR>.41377141E-3</BSTAR><MEAN_MOTION_DOT>.14159E-3</MEAN_MOTION_DOT><MEAN_MOTION_DDOT>0</MEAN_MOTION_DDOT></tleParameters></data></segment></body></omm>
<omm id="CCSDS_OMM_VERS" version="2.0">
<header><CREATION_DATE/><ORIGINATOR/></header><body><segment><metadata><OBJECT_NAME>KUIPER-00116</OBJECT_NAME><OBJECT_ID>2025-171X</OBJECT_ID><CENTER_NAME>EARTH</CENTER_NAME><REF_FRAME>TEME</REF_FRAME><TIME_SYSTEM>UTC</TIME_SYSTEM><MEAN_ELEMENT_THEORY>SGP4</MEAN_ELEMENT_THEORY></metadata><data><meanElements><EPOCH>2025-08-24T16:04:16.776768</EPOCH><MEAN_MOTION>15.35302832</MEAN_MOTION><ECCENTRICITY>.00051932</ECCENTRICITY><INCLINATION>51.8794</INCLINATION><RA_OF_ASC_NODE>341.3139</RA_OF_ASC_NODE><ARG_OF_PERICENTER>189.6974</ARG_OF_PERICENTER><MEAN_ANOMALY>170.3913</MEAN_ANOMALY></meanElements><tleParameters><EPHEMERIS_TYPE>0</EPHEMERIS_TYPE><CLASSIFICATION_TYPE>U</CLASSIFICATION_TYPE><NORAD_CAT_ID>65153</NORAD_CAT_ID><ELEMENT_SET_NO>999</ELEMENT_SET_NO><REV_AT_EPOCH>326</REV_AT_EPOCH><BSTAR>.61249132E-3</BSTAR><MEAN_MOTION_DOT>.21002E-3</MEAN_MOTION_DOT><MEAN_MOTION_DDOT>0</MEAN_MOTION_DDOT></tleParameters></data></segment></body></omm>
<omm id="CCSDS_OMM_VERS" version="2.0">
<header><CREATION_DATE/><ORIGINATOR/></header><body><segment><metadata><OBJECT_NAME>KUIPER-00118</OBJECT_NAME><OBJECT_ID>2025-171Y</OBJECT_ID><CENTER_NAME>EARTH</CENTER_NAME><REF_FRAME>TEME</REF_FRAME><TIME_SYSTEM>UTC</TIME_SYSTEM><MEAN_ELEMENT_THEORY>SGP4</MEAN_ELEMENT_THEORY></metadata><data><meanElements><EPOCH>2025-08-24T16:06:39.772224</EPOCH><MEAN_MOTION>15.35133794</MEAN_MOTION><ECCENTRICITY>.00047802</ECCENTRICITY><INCLINATION>51.8791</INCLINATION><RA_OF_ASC_NODE>341.3227</RA_OF_ASC_NODE><ARG_OF_PERICENTER>196.5796</ARG_OF_PERICENTER><MEAN_ANOMALY>163.5034</MEAN_ANOMALY></meanElements><tleParameters><EPHEMERIS_TYPE>0</EPHEMERIS_TYPE><CLASSIFICATION_TYPE>U</CLASSIFICATION_TYPE><NORAD_CAT_ID>65154</NORAD_CAT_ID><ELEMENT_SET_NO>999</ELEMENT_SET_NO><REV_AT_EPOCH>326</REV_AT_EPOCH><BSTAR>.52463739E-3</BSTAR><MEAN_MOTION_DOT>.17828E-3</MEAN_MOTION_DOT><MEAN_MOTION_DDOT>0</MEAN_MOTION_DDOT></tleParameters></data></segment></body></omm>
<omm id="CCSDS_OMM_VERS" version="2.0">
<header><CREATION_DATE/><ORIGINATOR/></header><body><segment><metadata><OBJECT_NAME>KUIPER-00119</OBJECT_NAME><OBJECT_ID>2025-171Z</OBJECT_ID><CENTER_NAME>EARTH</CENTER_NAME><REF_FRAME>TEME</REF_FRAME><TIME_SYSTEM>UTC</TIME_SYSTEM><MEAN_ELEMENT_THEORY>SGP4</MEAN_ELEMENT_THEORY></metadata><data><meanElements><EPOCH>2025-08-24T17:32:16.430208</EPOCH><MEAN_MOTION>15.35737116</MEAN_MOTION><ECCENTRICITY>.0005783</ECCENTRICITY><INCLINATION>51.8784</INCLINATION><RA_OF_ASC_NODE>340.9696</RA_OF_ASC_NODE><ARG_OF_PERICENTER>172.1893</ARG_OF_PERICENTER><MEAN_ANOMALY>187.9185</MEAN_ANOMALY></meanElements><tleParameters><EPHEMERIS_TYPE>0</EPHEMERIS_TYPE><CLASSIFICATION_TYPE>U</CLASSIFICATION_TYPE><NORAD_CAT_ID>65155</NORAD_CAT_ID><ELEMENT_SET_NO>999</ELEMENT_SET_NO><REV_AT_EPOCH>327</REV_AT_EPOCH><BSTAR>.53746928E-3</BSTAR><MEAN_MOTION_DOT>.18639E-3</MEAN_MOTION_DOT><MEAN_MOTION_DDOT>0</MEAN_MOTION_DDOT></tleParameters></data></segment></body></omm>
</ndm>
